NORAD_CAT_ID,OBJECT_NAME,OBJECT_TYPE,EPOCH,MEAN_MOTION,ECCENTRICITY,INCLINATION,RA_OF_ASC_NODE,ARG_OF_PERICENTER,MEAN_ANOMALY,BSTAR,MEAN_MOTION_DOT,MEAN_MOTION_DDOT,TLE_LINE0,TLE_LINE1,TLE_LINE2,SEMIMAJOR_AXIS,PERIOD,APOGEE,PERIGEE,DECAYED
51983.0,STARLINK-3655,PAYLOAD,2023-11-07 02:35:58,15.08828412,0.0001696,53.2169,270.9921,124.303,235.8122,-0.00028887,-4.881e-05,0.0,0 STARLINK-3655,1 51983U 22025AD  23311.10832033 -.00004881  00000-0 -28887-3 0  9996,2 51983  53.2169 270.9921 0001696 124.3030 235.8122 15.08828412 93317,6917.916,95.438,540.954,538.608,0.0
51983.0,STARLINK-3655,PAYLOAD,2023-11-07 07:22:08,15.08827651,0.0001267,53.2172,270.0999,106.6482,253.465,-7.5039e-05,-1.481e-05,0.0,0 STARLINK-3655,1 51983U 22025AD  23311.30704390 -.00001481  00000-0 -75039-4 0  9997,2 51983  53.2172 270.0999 0001267 106.6482 253.4650 15.08827651 92220,6917.918,95.438,540.66,538.907,0.0
51983.0,STARLINK-3655,PAYLOAD,2023-11-08 04:02:10,15.08830927,9.04e-05,53.2162,266.2398,101.3894,258.72,0.0017624,0.00027865,0.0,0 STARLINK-3655,1 51983U 22025AD  23312.16817317  .00027865  00000-0  17624-2 0  9992,2 51983  53.2162 266.2398 0000904 101.3894 258.7200 15.08830927 93472,6917.908,95.438,540.399,539.148,0.0
51983.0,STARLINK-3655,PAYLOAD,2023-11-09 03:52:54,15.08915776,9.14e-05,53.2162,261.7782,102.8522,257.2573,0.001722,0.00027281,0.0,0 STARLINK-3655,1 51983U 22025AD  23313.16173711  .00027281  00000-0  17220-2 0  9990,2 51983  53.2162 261.7782 0000914 102.8522 257.2573 15.08915776 93624,6917.649,95.433,540.146,538.882,0.0
51983.0,STARLINK-3655,PAYLOAD,2023-11-10 03:43:43,15.08810803,0.000153,53.2161,257.3179,77.1432,282.9731,0.0008625,0.00013454,0.0,0 STARLINK-3655,1 51983U 22025AD  23314.15536363  .00013454  00000-0  86250-3 0  9993,2 51983  53.2161 257.3179 0001530  77.1432 282.9731 15.08810803 93775,6917.97,95.439,540.893,538.776,0.0
51983.0,STARLINK-3655,PAYLOAD,2023-11-10 13:16:02,15.08820232,0.0001429,53.2159,255.5333,87.0708,273.0448,0.00072684,0.00011292,0.0,0 STARLINK-3655,1 51983U 22025AD  23314.55280885  .00011292  00000-0  72684-3 0  9996,2 51983  53.2159 255.5333 0001429  87.0708 273.0448 15.08820232 92713,6917.941,95.439,540.794,538.817,0.0
51983.0,STARLINK-3655,PAYLOAD,2023-11-11 05:09:53,15.08851825,0.0001435,53.2159,252.5597,87.0546,273.061,0.0012039,0.0001893,0.0,0 STARLINK-3655,1 51983U 22025AD  23315.21520821  .00018930  00000-0  12039-2 0  9990,2 51983  53.2159 252.5597 0001435  87.0546 273.0610 15.08851825 93937,6917.844,95.437,540.702,538.717,0.0
51983.0,STARLINK-3655,PAYLOAD,2023-11-11 13:06:49,15.0884042,0.0001553,53.2173,251.0724,80.8636,279.2532,0.0004721,7.234e-05,0.0,0 STARLINK-3655,1 51983U 22025AD  23315.54641181  .00007234  00000-0  47210-3 0  9994,2 51983  53.2173 251.0724 0001553  80.8636 279.2532 15.08840420 92862,6917.879,95.438,540.818,538.67,0.0
51983.0,STARLINK-3655,PAYLOAD,2023-11-12 03:25:18,15.08835386,0.000152,53.2161,248.3971,81.0161,279.1003,0.0002997,4.484e-05,0.0,0 STARLINK-3655,1 51983U 22025AD  23316.14257678  .00004484  00000-0  29970-3 0  9992,2 51983  53.2161 248.3971 0001520  81.0161 279.1003 15.08835386 94074,6917.894,95.438,540.811,538.708,0.0
51983.0,STARLINK-3655,PAYLOAD,2023-11-12 12:57:37,15.08843651,0.0001493,53.2161,246.6132,81.3585,278.7576,0.00037188,5.636e-05,0.0,0 STARLINK-3655,1 51983U 22025AD  23316.54001548  .00005636  00000-0  37188-3 0  9999,2 51983  53.2161 246.6132 0001493  81.3585 278.7576 15.08843651 93013,6917.869,95.437,540.767,538.701,0.0
51983.0,STARLINK-3655,PAYLOAD,2023-11-13 04:51:28,15.08859805,0.0001525,53.2168,243.6377,87.5986,272.5181,0.00083402,0.00013017,0.0,0 STARLINK-3655,1 51983U 22025AD  23317.20241088  .00013017  00000-0  83402-3 0  9990,2 51983  53.2168 243.6377 0001525  87.5986 272.5181 15.08859805 94234,6917.82,95.436,540.74,538.63,0.0
51983.0,STARLINK-3655,PAYLOAD,2023-11-13 12:48:24,15.08840435,0.0002218,53.2188,242.1517,81.5279,278.5964,0.0001686,2.396e-05,0.0,0 STARLINK-3655,1 51983U 22025AD  23317.53361746  .00002396  00000-0  16860-3 0  9992,2 51983  53.2188 242.1517 0002218  81.5279 278.5964 15.08840435 93160,6917.879,95.438,541.278,538.21,0.0
51983.0,STARLINK-3655,PAYLOAD,2023-11-14 04:42:15,15.08842866,0.0001767,53.2174,239.1772,85.8462,274.2732,0.00019742,2.856e-05,0.0,0 STARLINK-3655,1 51983U 22025AD  23318.19601468  .00002856  00000-0  19742-3 0  9996,2 51983  53.2174 239.1772 0001767  85.8462 274.2732 15.08842866 93260,6917.872,95.437,540.959,538.514,0.0
51983.0,STARLINK-3655,PAYLOAD,2023-11-15 01:22:16,15.08815886,0.0001786,53.2174,235.3119,75.8812,284.2378,-0.00056052,-9.192e-05,0.0,0 STARLINK-3655,1 51983U 22025AD  23319.05713916 -.00009192  00000-0 -56052-3 0  9991,2 51983  53.2174 235.3119 0001786  75.8812 284.2378 15.08815886 94510,6917.954,95.439,541.055,538.584,0.0
51983.0,STARLINK-3655,PAYLOAD,2023-11-15 18:51:30,15.08846396,0.0001705,53.2177,232.0408,103.7289,256.3893,0.00022947,3.366e-05,0.0,0 STARLINK-3655,1 51983U 22025AD  23319.78577319  .00003366  00000-0  22947-3 0  9997,2 51983  53.2177 232.0408 0001705 103.7289 256.3893 15.08846396 94622,6917.861,95.437,540.905,538.546,0.0
51983.0,STARLINK-3655,PAYLOAD,2023-11-16 04:23:49,15.08852672,0.0001438,53.2164,230.2576,81.8881,278.2274,0.00043608,6.661e-05,0.0,0 STARLINK-3655,1 51983U 22025AD  23320.18321076  .00006661  00000-0  43608-3 0  9998,2 51983  53.2164 230.2576 0001438  81.8881 278.2274 15.08852672 93563,6917.842,95.437,540.701,538.712,0.0
51983.0,STARLINK-3655,PAYLOAD,2023-11-17 02:39:13,15.08846998,0.0001812,53.216,226.0934,86.1796,273.9403,1.034e-05,-1.24e-06,0.0,0 STARLINK-3655,1 51983U 22025AD  23321.11057381 -.00000124  00000-0  10340-4 0  9994,2 51983  53.2160 226.0934 0001812  86.1796 273.9403 15.08846998 94829,6917.859,95.437,540.978,538.47,0.0
51983.0,STARLINK-3655,PAYLOAD,2023-11-17 10:36:09,15.08842488,0.000172,53.2161,224.6063,84.5182,275.6006,-8.6011e-07,-3.02e-06,0.0,0 STARLINK-3655,1 51983U 22025AD  23321.44177490 -.00000302  00000-0 -86011-6 0  9993,2 51983  53.2161 224.6063 0001720  84.5182 275.6006 15.08842488 93755,6917.873,95.437,540.928,538.548,0.0
51983.0,STARLINK-3655,PAYLOAD,2023-11-18 02:30:01,15.08831963,0.0001792,53.2179,221.6336,89.3271,270.7926,-5.9621e-05,-1.237e-05,0.0,0 STARLINK-3655,1 51983U 22025AD  23322.10418198 -.00001237  00000-0 -59621-4 0  9993,2 51983  53.2179 221.6336 0001792  89.3271 270.7926 15.08831963 94973,6917.905,95.438,541.01,538.53,0.0
51983.0,STARLINK-3655,PAYLOAD,2023-11-18 10:26:57,15.08834563,0.0001785,53.2176,220.1473,89.1316,270.988,0.00015448,2.171e-05,0.0,0 STARLINK-3655,1 51983U 22025AD  23322.43538276  .00002171  00000-0  15448-3 0  9993,2 51983  53.2176 220.1473 0001785  89.1316 270.9880 15.08834563 93908,6917.897,95.438,540.997,538.527,0.0
51983.0,STARLINK-3655,PAYLOAD,2023-11-19 02:20:47,15.08845352,0.000157,53.2163,217.1741,88.6437,271.4735,0.00020508,2.978e-05,0.0,0 STARLINK-3655,1 51983U 22025AD  23323.09777642  .00002978  00000-0  20508-3 0  9996,2 51983  53.2163 217.1741 0001570  88.6437 271.4735 15.08845352 95127,6917.864,95.437,540.815,538.643,0.0
51983.0,STARLINK-3655,PAYLOAD,2023-11-19 10:17:43,15.08839442,0.0001633,53.2168,215.6857,86.5196,273.5983,0.00010459,1.377e-05,0.0,0 STARLINK-3655,1 51983U 22025AD  23323.42898042  .00001377  00000-0  10459-3 0  9997,2 51983  53.2168 215.6857 0001633  86.5196 273.5983 15.08839442 95178,6917.882,95.438,540.877,538.617,0.0
51983.0,STARLINK-3655,PAYLOAD,2023-11-19 23:00:48,15.08840208,0.000146,53.2155,213.3068,88.6643,271.4516,0.00016428,2.328e-05,0.0,0 STARLINK-3655,1 51983U 22025AD  23323.95890008  .00002328  00000-0  16428-3 0  9998,2 51983  53.2155 213.3068 0001460  88.6643 271.4516 15.08840208 94137,6917.88,95.438,540.755,538.735,0.0
51983.0,STARLINK-3655,PAYLOAD,2023-11-20 10:08:30,15.08845121,0.0001471,53.2153,211.2276,87.2426,272.8735,0.00016133,2.281e-05,0.0,0 STARLINK-3655,1 51983U 22025AD  23324.42257844  .00002281  00000-0  16133-3 0  9997,2 51983  53.2153 211.2276 0001471  87.2426 272.8735 15.08845121 94204,6917.865,95.437,540.747,538.712,0.0
51983.0,STARLINK-3655,PAYLOAD,2023-11-20 14:54:40,15.08845713,0.0001509,53.215,210.3361,86.5613,273.5552,0.00016361,2.317e-05,0.0,0 STARLINK-3655,1 51983U 22025AD  23324.62129841  .00002317  00000-0  16361-3 0  9997,2 51983  53.2150 210.3361 0001509  86.5613 273.5552 15.08845713 95357,6917.863,95.437,540.772,538.684,0.0
51983.0,STARLINK-3655,PAYLOAD,2023-11-20 22:51:35,15.08851436,0.0001536,53.2159,208.8474,92.3995,267.7173,0.00018541,2.665e-05,0.0,0 STARLINK-3655,1 51983U 22025AD  23324.95249389  .00002665  00000-0  18541-3 0  9991,2 51983  53.2159 208.8474 0001536  92.3995 267.7173 15.08851436 94285,6917.845,95.437,540.773,538.648,0.0
51983.0,STARLINK-3655,PAYLOAD,2023-11-21 09:59:17,15.08843678,0.0001418,53.2154,206.7665,91.2224,268.893,3.4312e-05,2.58e-06,0.0,0 STARLINK-3655,1 51983U 22025AD  23325.41617714  .00000258  00000-0  34312-4 0  9995,2 51983  53.2154 206.7665 0001418  91.2224 268.8930 15.08843678 94351,6917.869,95.437,540.715,538.753,0.0
51983.0,STARLINK-3655,PAYLOAD,2023-11-21 21:06:59,15.08841839,0.0001446,53.2151,204.6858,90.1999,269.9159,0.00011197,1.495e-05,0.0,0 STARLINK-3655,1 51983U 22025AD  23325.87985957  .00001495  00000-0  11197-3 0  9991,2 51983  53.2151 204.6858 0001446  90.1999 269.9159 15.08841839 94427,6917.875,95.437,540.74,538.739,0.0
51983.0,STARLINK-3655,PAYLOAD,2023-11-22 01:53:09,15.08847218,0.0001516,53.2157,203.7926,91.8462,268.2704,0.00012526,1.706e-05,0.0,0 STARLINK-3655,1 51983U 22025AD  23326.07857655  .00001706  00000-0  12526-3 0  9999,2 51983  53.2157 203.7926 0001516  91.8462 268.2704 15.08847218 95572,6917.858,95.437,540.772,538.675,0.0
51983.0,STARLINK-3655,PAYLOAD,2023-11-22 20:57:46,15.0884711,0.0001383,53.2153,200.2228,106.6758,253.4386,0.00021955,3.209e-05,0.0,0 STARLINK-3655,1 51983U 22025AD  23326.87345465  .00003209  00000-0  21955-3 0  9994,2 51983  53.2153 200.2228 0001383 106.6758 253.4386 15.08847110 94572,6917.859,95.437,540.68,538.767,0.0
